{"fetched_at":"2026-07-17T17:37:56.755Z","source":"https://celestrak.org/NORAD/elements/gp.php?GROUP=qianfan&FORMAT=JSON","constellation":"qianfan","records":[{"OBJECT_NAME":"QIANFAN-49","OBJECT_ID":"2024-232P","EPOCH":"2026-07-17T06:04:09.949152","CLASSIFICATION_TYPE":"U","MEAN_MOTION":13.510142,"ECCENTRICITY":0.00122321,"INCLINATION":89.0074,"RA_OF_ASC_NODE":19.4836,"ARG_OF_PERICENTER":292.7956,"MEAN_ANOMALY":67.1903,"EPHEMERIS_TYPE":0,"NORAD_CAT_ID":62250,"ELEMENT_SET_NO":999,"REV_AT_EPOCH":9707,"BSTAR":0.0000138258,"MEAN_MOTION_DOT":2.1e-7,"MEAN_MOTION_DDOT":0},{"OBJECT_NAME":"QIANFAN-50","OBJECT_ID":"2024-232Q","EPOCH":"2026-07-17T04:53:13.053984","CLASSIFICATION_TYPE":"U","MEAN_MOTION":13.51010967,"ECCENTRICITY":0.00139112,"INCLINATION":89.008,"RA_OF_ASC_NODE":19.5085,"ARG_OF_PERICENTER":294.1063,"MEAN_ANOMALY":65.8632,"EPHEMERIS_TYPE":0,"NORAD_CAT_ID":62251,"ELEMENT_SET_NO":999,"REV_AT_EPOCH":9709,"BSTAR":0.000030797187,"MEAN_MOTION_DOT":3.2e-7,"MEAN_MOTION_DDOT":0},{"OBJECT_NAME":"QIANFAN-51","OBJECT_ID":"2024-232R","EPOCH":"2026-07-17T06:16:13.499040","CLASSIFICATION_TYPE":"U","MEAN_MOTION":13.51022241,"ECCENTRICITY":0.00114429,"INCLINATION":89.0074,"RA_OF_ASC_NODE":19.4833,"ARG_OF_PERICENTER":299.162,"MEAN_ANOMALY":60.8385,"EPHEMERIS_TYPE":0,"NORAD_CAT_ID":62252,"ELEMENT_SET_NO":999,"REV_AT_EPOCH":9709,"BSTAR":-0.000010629697,"MEAN_MOTION_DOT":5e-8,"MEAN_MOTION_DDOT":0},{"OBJECT_NAME":"QIANFAN-52","OBJECT_ID":"2024-232S","EPOCH":"2026-07-17T06:57:30.493728","CLASSIFICATION_TYPE":"U","MEAN_MOTION":13.51013926,"ECCENTRICITY":0.00133489,"INCLINATION":89.007,"RA_OF_ASC_NODE":19.3455,"ARG_OF_PERICENTER":289.3023,"MEAN_ANOMALY":70.6684,"EPHEMERIS_TYPE":0,"NORAD_CAT_ID":62253,"ELEMENT_SET_NO":999,"REV_AT_EPOCH":9718,"BSTAR":0.00002753788,"MEAN_MOTION_DOT":3e-7,"MEAN_MOTION_DDOT":0},{"OBJECT_NAME":"QIANFAN-53","OBJECT_ID":"2024-232T","EPOCH":"2026-07-17T06:27:58.822848","CLASSIFICATION_TYPE":"U","MEAN_MOTION":13.51009906,"ECCENTRICITY":0.00122473,"INCLINATION":89.0077,"RA_OF_ASC_NODE":19.4685,"ARG_OF_PERICENTER":290.8772,"MEAN_ANOMALY":69.1067,"EPHEMERIS_TYPE":0,"NORAD_CAT_ID":62254,"ELEMENT_SET_NO":999,"REV_AT_EPOCH":9714,"BSTAR":0.000017291768,"MEAN_MOTION_DOT":2.3e-7,"MEAN_MOTION_DDOT":0},{"OBJECT_NAME":"QIANFAN-54","OBJECT_ID":"2024-232U","EPOCH":"2026-07-17T03:53:51.365184","CLASSIFICATION_TYPE":"U","MEAN_MOTION":13.51013725,"ECCENTRICITY":0.00021164,"INCLINATION":89.0068,"RA_OF_ASC_NODE":19.1385,"ARG_OF_PERICENTER":29.8785,"MEAN_ANOMALY":330.2487,"EPHEMERIS_TYPE":0,"NORAD_CAT_ID":62255,"ELEMENT_SET_NO":999,"REV_AT_EPOCH":12863,"BSTAR":0.000020613029,"MEAN_MOTION_DOT":2.5e-7,"MEAN_MOTION_DDOT":0},{"OBJECT_NAME":"QIANFAN-55","OBJECT_ID":"2025-016A","EPOCH":"2026-07-17T02:44:53.611296","CLASSIFICATION_TYPE":"U","MEAN_MOTION":13.51011328,"ECCENTRICITY":0.00194029,"INCLINATION":88.9714,"RA_OF_ASC_NODE":80.7731,"ARG_OF_PERICENTER":82.6755,"MEAN_ANOMALY":277.6601,"EPHEMERIS_TYPE":0,"NORAD_CAT_ID":62785,"ELEMENT_SET_NO":999,"REV_AT_EPOCH":7640,"BSTAR":0.00013663218,"MEAN_MOTION_DOT":0.00000101,"MEAN_MOTION_DDOT":0},{"OBJECT_NAME":"QIANFAN-56","OBJECT_ID":"2025-016B","EPOCH":"2026-07-17T06:41:56.584032","CLASSIFICATION_TYPE":"U","MEAN_MOTION":13.51009914,"ECCENTRICITY":0.00180366,"INCLINATION":88.9687,"RA_OF_ASC_NODE":80.5346,"ARG_OF_PERICENTER":84.3268,"MEAN_ANOMALY":275.994,"EPHEMERIS_TYPE":0,"NORAD_CAT_ID":62786,"ELEMENT_SET_NO":999,"REV_AT_EPOCH":7647,"BSTAR":0.00010554572,"MEAN_MOTION_DOT":8e-7,"MEAN_MOTION_DDOT":0},{"OBJECT_NAME":"QIANFAN-57","OBJECT_ID":"2025-016C","EPOCH":"2026-07-17T05:42:35.689248","CLASSIFICATION_TYPE":"U","MEAN_MOTION":13.51009951,"ECCENTRICITY":0.00013113,"INCLINATION":88.9718,"RA_OF_ASC_NODE":80.7598,"ARG_OF_PERICENTER":83.7207,"MEAN_ANOMALY":276.4093,"EPHEMERIS_TYPE":0,"NORAD_CAT_ID":62787,"ELEMENT_SET_NO":999,"REV_AT_EPOCH":7643,"BSTAR":0.00011287332,"MEAN_MOTION_DOT":8.5e-7,"MEAN_MOTION_DDOT":0},{"OBJECT_NAME":"QIANFAN-58","OBJECT_ID":"2025-016D","EPOCH":"2026-07-17T06:47:35.617632","CLASSIFICATION_TYPE":"U","MEAN_MOTION":13.51014454,"ECCENTRICITY":0.00159584,"INCLINATION":88.9688,"RA_OF_ASC_NODE":80.5207,"ARG_OF_PERICENTER":77.5941,"MEAN_ANOMALY":282.6996,"EPHEMERIS_TYPE":0,"NORAD_CAT_ID":62788,"ELEMENT_SET_NO":999,"REV_AT_EPOCH":7648,"BSTAR":0.00011125567,"MEAN_MOTION_DOT":8.4e-7,"MEAN_MOTION_DDOT":0},{"OBJECT_NAME":"QIANFAN-59","OBJECT_ID":"2025-016E","EPOCH":"2026-07-17T05:36:31.864032","CLASSIFICATION_TYPE":"U","MEAN_MOTION":13.51018695,"ECCENTRICITY":0.00163254,"INCLINATION":88.9712,"RA_OF_ASC_NODE":80.6507,"ARG_OF_PERICENTER":81.0712,"MEAN_ANOMALY":279.2286,"EPHEMERIS_TYPE":0,"NORAD_CAT_ID":62789,"ELEMENT_SET_NO":999,"REV_AT_EPOCH":7647,"BSTAR":0.00012474413,"MEAN_MOTION_DOT":9.3e-7,"MEAN_MOTION_DDOT":0},{"OBJECT_NAME":"QIANFAN-60","OBJECT_ID":"2025-016F","EPOCH":"2026-07-17T06:24:09.767808","CLASSIFICATION_TYPE":"U","MEAN_MOTION":13.51021617,"ECCENTRICITY":0.0017871,"INCLINATION":88.9693,"RA_OF_ASC_NODE":80.5775,"ARG_OF_PERICENTER":77.8099,"MEAN_ANOMALY":282.5052,"EPHEMERIS_TYPE":0,"NORAD_CAT_ID":62790,"ELEMENT_SET_NO":999,"REV_AT_EPOCH":7646,"BSTAR":0.0001408379,"MEAN_MOTION_DOT":0.00000103,"MEAN_MOTION_DDOT":0},{"OBJECT_NAME":"QIANFAN-61","OBJECT_ID":"2025-016G","EPOCH":"2026-07-17T05:24:53.902368","CLASSIFICATION_TYPE":"U","MEAN_MOTION":13.51002157,"ECCENTRICITY":0.00168442,"INCLINATION":88.976,"RA_OF_ASC_NODE":80.8914,"ARG_OF_PERICENTER":77.5988,"MEAN_ANOMALY":282.7047,"EPHEMERIS_TYPE":0,"NORAD_CAT_ID":62791,"ELEMENT_SET_NO":999,"REV_AT_EPOCH":7647,"BSTAR":0.00013901636,"MEAN_MOTION_DOT":0.00000102,"MEAN_MOTION_DDOT":0},{"OBJECT_NAME":"QIANFAN-62","OBJECT_ID":"2025-016H","EPOCH":"2026-07-17T05:30:32.634432","CLASSIFICATION_TYPE":"U","MEAN_MOTION":13.51014084,"ECCENTRICITY":0.00181805,"INCLINATION":88.9706,"RA_OF_ASC_NODE":80.6429,"ARG_OF_PERICENTER":77.7321,"MEAN_ANOMALY":282.5865,"EPHEMERIS_TYPE":0,"NORAD_CAT_ID":62792,"ELEMENT_SET_NO":999,"REV_AT_EPOCH":7646,"BSTAR":0.000092506452,"MEAN_MOTION_DOT":7.2e-7,"MEAN_MOTION_DDOT":0},{"OBJECT_NAME":"QIANFAN-63","OBJECT_ID":"2025-016J","EPOCH":"2026-07-17T06:06:12.807360","CLASSIFICATION_TYPE":"U","MEAN_MOTION":13.51017365,"ECCENTRICITY":0.00182332,"INCLINATION":88.9713,"RA_OF_ASC_NODE":80.6065,"ARG_OF_PERICENTER":82.4258,"MEAN_ANOMALY":277.8964,"EPHEMERIS_TYPE":0,"NORAD_CAT_ID":62793,"ELEMENT_SET_NO":999,"REV_AT_EPOCH":7650,"BSTAR":0.00014166272,"MEAN_MOTION_DOT":0.00000104,"MEAN_MOTION_DDOT":0},{"OBJECT_NAME":"QIANFAN-64","OBJECT_ID":"2025-016K","EPOCH":"2026-07-17T05:18:53.813952","CLASSIFICATION_TYPE":"U","MEAN_MOTION":13.5101379,"ECCENTRICITY":0.00161716,"INCLINATION":88.97,"RA_OF_ASC_NODE":80.555,"ARG_OF_PERICENTER":76.2783,"MEAN_ANOMALY":284.0167,"EPHEMERIS_TYPE":0,"NORAD_CAT_ID":62794,"ELEMENT_SET_NO":999,"REV_AT_EPOCH":7649,"BSTAR":0.00013366697,"MEAN_MOTION_DOT":9.9e-7,"MEAN_MOTION_DDOT":0}]}
