QIANFAN-49              
1 62250U 24232P   26198.25289293  .00000021  00000+0  13826-4 0  9990
2 62250  89.0074  19.4836 0012232 292.7956  67.1903 13.51014200 97072
QIANFAN-50              
1 62251U 24232Q   26198.20362331  .00000032  00000+0  30797-4 0  9999
2 62251  89.0080  19.5085 0013911 294.1063  65.8632 13.51010967 97099
QIANFAN-51              
1 62252U 24232R   26198.26126735  .00000005  00000+0 -10630-4 0  9997
2 62252  89.0074  19.4833 0011442 299.1620  60.8385 13.51022241 97092
QIANFAN-52              
1 62253U 24232S   26198.28993627  .00000030  00000+0  27538-4 0  9994
2 62253  89.0070  19.3455 0013348 289.3023  70.6684 13.51013926 97184
QIANFAN-53              
1 62254U 24232T   26198.26943082  .00000023  00000+0  17292-4 0  9991
2 62254  89.0077  19.4685 0012247 290.8772  69.1067 13.51009906 97140
QIANFAN-54              
1 62255U 24232U   26198.16240006  .00000025  00000+0  20613-4 0  9990
2 62255  89.0068  19.1385 0002116  29.8785 330.2487 13.51013725128634
QIANFAN-55              
1 62785U 25016A   26198.11450939  .00000101  00000+0  13663-3 0  9993
2 62785  88.9714  80.7731 0019402  82.6755 277.6601 13.51011328 76403
QIANFAN-56              
1 62786U 25016B   26198.27912713  .00000080  00000+0  10555-3 0  9997
2 62786  88.9687  80.5346 0018036  84.3268 275.9940 13.51009914 76475
QIANFAN-57              
1 62787U 25016C   26198.23791307  .00000085  00000+0  11287-3 0  9996
2 62787  88.9718  80.7598 0001311  83.7207 276.4093 13.51009951 76438
QIANFAN-58              
1 62788U 25016D   26198.28305113  .00000084  00000+0  11126-3 0  9999
2 62788  88.9688  80.5207 0015958  77.5941 282.6996 13.51014454 76488
QIANFAN-59              
1 62789U 25016E   26198.23370213  .00000093  00000+0  12474-3 0  9995
2 62789  88.9712  80.6507 0016325  81.0712 279.2286 13.51018695 76470
QIANFAN-60              
1 62790U 25016F   26198.26677972  .00000103  00000+0  14084-3 0  9993
2 62790  88.9693  80.5775 0017871  77.8099 282.5052 13.51021617 76469
QIANFAN-61              
1 62791U 25016G   26198.22562387  .00000102  00000+0  13902-3 0  9990
2 62791  88.9760  80.8914 0016844  77.5988 282.7047 13.51002157 76471
QIANFAN-62              
1 62792U 25016H   26198.22954438  .00000072  00000+0  92506-4 0  9997
2 62792  88.9706  80.6429 0018180  77.7321 282.5865 13.51014084 76466
QIANFAN-63              
1 62793U 25016J   26198.25431490  .00000104  00000+0  14166-3 0  9990
2 62793  88.9713  80.6065 0018233  82.4258 277.8964 13.51017365 76509
QIANFAN-64              
1 62794U 25016K   26198.22145618  .00000099  00000+0  13367-3 0  9997
2 62794  88.9700  80.5550 0016171  76.2783 284.0167 13.51013790 76498
